{
  "norad_id": 57477,
  "name": "STARLINK-30176",
  "history": [
    {
      "epoch": "2026-03-28T17:47:23.434944Z",
      "apogee_km": 484.14958754558575,
      "perigee_km": 481.9892680897228,
      "latitude_deg": -2.6807105545938437e-05,
      "longitude_deg": 135.24728705200107,
      "height_km": 482.7889241627873,
      "semi_major_axis_km": 6861.206427817654,
      "eccentricity": 0.00015743,
      "inclination_deg": 42.9974,
      "raan_deg": 228.2523,
      "arg_perigee_deg": 273.0285,
      "mean_anomaly_deg": 87.0386,
      "mean_motion_rev_day": 15.2757321
    },
    {
      "epoch": "2026-03-29T01:38:10.270752Z",
      "apogee_km": 484.1493107979959,
      "perigee_km": 481.87703508372215,
      "latitude_deg": 4.423834046771697e-06,
      "longitude_deg": 15.387833225595486,
      "height_km": 482.6705325061457,
      "semi_major_axis_km": 6861.150172940859,
      "eccentricity": 0.00016559,
      "inclination_deg": 43.0032,
      "raan_deg": 226.4102,
      "arg_perigee_deg": 276.0586,
      "mean_anomaly_deg": 84.0077,
      "mean_motion_rev_day": 15.27591997
    },
    {
      "epoch": "2026-03-30T15:17:55.757760Z",
      "apogee_km": 484.21773149050296,
      "perigee_km": 481.965327388858,
      "latitude_deg": 9.309965986595935e-07,
      "longitude_deg": 160.03805204175367,
      "height_km": 483.1813884711011,
      "semi_major_axis_km": 6861.22852943968,
      "eccentricity": 0.00016414,
      "inclination_deg": 43.0013,
      "raan_deg": 217.5467,
      "arg_perigee_deg": 253.8683,
      "mean_anomaly_deg": 106.1988,
      "mean_motion_rev_day": 15.27565829
    },
    {
      "epoch": "2026-03-30T16:52:05.247264Z",
      "apogee_km": 484.14926959193053,
      "perigee_km": 482.0146071558238,
      "latitude_deg": -1.9381072234728754e-05,
      "longitude_deg": 136.0649418873072,
      "height_km": 483.1306305032004,
      "semi_major_axis_km": 6861.218938373877,
      "eccentricity": 0.00015556,
      "inclination_deg": 43.0013,
      "raan_deg": 217.1776,
      "arg_perigee_deg": 255.2472,
      "mean_anomaly_deg": 104.8207,
      "mean_motion_rev_day": 15.27569032
    }
  ]
}